[{"OBJECT_NAME":"CENTISPACE-1 S1","OBJECT_ID":"2018-075A","EPOCH":"2026-03-09T22:27:35.656704","MEAN_MOTION":14.59881331,"ECCENTRICITY":0.00099543,"INCLINATION":97.8837,"RA_OF_ASC_NODE":97.6295,"ARG_OF_PERICENTER":76.115,"MEAN_ANOMALY":284.1158,"EPHEMERIS_TYPE":0,"CLASSIFICATION_TYPE":"U","NORAD_CAT_ID":43636,"ELEMENT_SET_NO":999,"REV_AT_EPOCH":39607,"BSTAR":0.00015220706,"MEAN_MOTION_DOT":6.85e-6,"MEAN_MOTION_DDOT":0},{"OBJECT_NAME":"SL-16 DEB","OBJECT_ID":"1993-016E","EPOCH":"2026-03-09T18:33:38.056896","MEAN_MOTION":14.43881326,"ECCENTRICITY":0.0117816,"INCLINATION":71.0411,"RA_OF_ASC_NODE":183.0939,"ARG_OF_PERICENTER":234.7743,"MEAN_ANOMALY":240.8519,"EPHEMERIS_TYPE":0,"CLASSIFICATION_TYPE":"U","NORAD_CAT_ID":22577,"ELEMENT_SET_NO":999,"REV_AT_EPOCH":73469,"BSTAR":9.6343428e-5,"MEAN_MOTION_DOT":3.01e-6,"MEAN_MOTION_DDOT":0}]
